NORAD_CAT_ID,OBJECT_NAME,OBJECT_TYPE,EPOCH,MEAN_MOTION,ECCENTRICITY,INCLINATION,RA_OF_ASC_NODE,ARG_OF_PERICENTER,MEAN_ANOMALY,BSTAR,MEAN_MOTION_DOT,MEAN_MOTION_DDOT,TLE_LINE0,TLE_LINE1,TLE_LINE2,SEMIMAJOR_AXIS,PERIOD,APOGEE,PERIGEE,DECAYED
51976.0,STARLINK-3663,PAYLOAD,2023-11-02 09:29:03,15.08848646,0.0001706,53.2187,291.9804,89.9547,270.1641,0.00019972,2.893e-05,0.0,0 STARLINK-3663,1 51976U 22025W   23306.39517381  .00002893  00000-0  19972-3 0  9993,2 51976  53.2187 291.9804 0001706  89.9547 270.1641 15.08848646 91499,6917.854,95.437,540.899,538.539,0.0
51976.0,STARLINK-3663,PAYLOAD,2023-11-02 15:50:35,15.08841396,0.0001419,53.2165,290.7894,81.063,279.0523,6.584e-05,7.6e-06,0.0,0 STARLINK-3663,1 51976U 22025W   23306.66013627  .00000760  00000-0  65840-4 0  9994,2 51976  53.2165 290.7894 0001419  81.0630 279.0523 15.08841396 92648,6917.876,95.437,540.723,538.759,0.0
51976.0,STARLINK-3663,PAYLOAD,2023-11-02 22:12:08,15.08837554,0.0001812,53.2158,289.5997,87.3522,272.7677,-1.4282e-05,-5.15e-06,0.0,0 STARLINK-3663,1 51976U 22025W   23306.92509944 -.00000515  00000-0 -14282-4 0  9999,2 51976  53.2158 289.5997 0001812  87.3522 272.7677 15.08837554 91578,6917.888,95.438,541.006,538.499,0.0
51976.0,STARLINK-3663,PAYLOAD,2023-11-03 06:09:03,15.08845051,0.0001492,53.2161,288.1147,96.9246,263.1916,0.00014177,1.969e-05,0.0,0 STARLINK-3663,1 51976U 22025W   23307.25629590  .00001969  00000-0  14177-3 0  9990,2 51976  53.2161 288.1147 0001492  96.9246 263.1916 15.08845051 91624,6917.865,95.437,540.762,538.698,0.0
51976.0,STARLINK-3663,PAYLOAD,2023-11-03 15:41:22,15.08847736,0.0001449,53.2163,286.3309,91.6734,268.4424,0.00020545,2.984e-05,0.0,0 STARLINK-3663,1 51976U 22025W   23307.65373519  .00002984  00000-0  20545-3 0  9995,2 51976  53.2163 286.3309 0001449  91.6734 268.4424 15.08847736 91682,6917.857,95.437,540.724,538.719,0.0
51976.0,STARLINK-3663,PAYLOAD,2023-11-04 04:24:28,15.08837269,0.0001822,53.2179,283.9503,86.6314,273.4886,8.1244e-06,-1.59e-06,0.0,0 STARLINK-3663,1 51976U 22025W   23308.18366066 -.00000159  00000-0  81244-5 0  9991,2 51976  53.2179 283.9503 0001822  86.6314 273.4886 15.08837269 92871,6917.889,95.438,541.014,538.493,0.0
51976.0,STARLINK-3663,PAYLOAD,2023-11-04 07:35:14,15.08845042,0.0001814,53.2177,283.3556,85.8478,274.2721,0.00017655,2.523e-05,0.0,0 STARLINK-3663,1 51976U 22025W   23308.31613815  .00002523  00000-0  17655-3 0  9992,2 51976  53.2177 283.3556 0001814  85.8478 274.2721 15.08845042 91788,6917.865,95.437,540.985,538.475,0.0
51976.0,STARLINK-3663,PAYLOAD,2023-11-04 15:32:10,15.08844459,0.000164,53.217,281.8692,85.6455,274.4725,0.00017022,2.422e-05,0.0,0 STARLINK-3663,1 51976U 22025W   23308.64733818  .00002422  00000-0  17022-3 0  9990,2 51976  53.2170 281.8692 0001640  85.6455 274.4725 15.08844459 91838,6917.867,95.437,540.866,538.597,0.0
51976.0,STARLINK-3663,PAYLOAD,2023-11-05 04:15:14,15.08850537,0.0001576,53.215,279.4889,123.8601,236.2542,0.00022123,3.236e-05,0.0,0 STARLINK-3663,1 51976U 22025W   23309.17725330  .00003236  00000-0  22123-3 0  9991,2 51976  53.2150 279.4889 0001576 123.8601 236.2542 15.08850537 93023,6917.848,95.437,540.803,538.623,0.0
51976.0,STARLINK-3663,PAYLOAD,2023-11-05 07:26:00,15.08861479,0.0001603,53.2164,278.894,85.7549,274.3627,0.00049462,7.597e-05,0.0,0 STARLINK-3663,1 51976U 22025W   23309.30973309  .00007597  00000-0  49462-3 0  9996,2 51976  53.2164 278.8940 0001603  85.7549 274.3627 15.08861479 91939,6917.815,95.436,540.789,538.571,0.0
51976.0,STARLINK-3663,PAYLOAD,2023-11-06 04:06:01,15.0882047,0.0001226,53.2176,275.0293,90.1469,269.9664,-0.00084546,-0.00013711,0.0,0 STARLINK-3663,1 51976U 22025W   23310.17085166 -.00013711  00000-0 -84546-3 0  9997,2 51976  53.2176 275.0293 0001226  90.1469 269.9664 15.08820470 93179,6917.94,95.439,540.653,538.957,0.0
51976.0,STARLINK-3663,PAYLOAD,2023-11-06 15:13:43,15.08848037,0.0001332,53.218,272.9494,84.6059,275.5085,0.00017984,2.576e-05,0.0,0 STARLINK-3663,1 51976U 22025W   23310.63452942  .00002576  00000-0  17984-3 0  9995,2 51976  53.2180 272.9494 0001332  84.6059 275.5085 15.08848037 93241,6917.856,95.437,540.642,538.799,0.0
51976.0,STARLINK-3663,PAYLOAD,2023-11-07 07:07:34,15.08869866,0.0001448,53.2163,269.9758,86.9562,273.1596,0.0015436,0.00024384,0.0,0 STARLINK-3663,1 51976U 22025W   23311.29692681  .00024384  00000-0  15436-2 0  9994,2 51976  53.2163 269.9758 0001448  86.9562 273.1596 15.08869866 93348,6917.789,95.436,540.656,538.652,0.0
51976.0,STARLINK-3663,PAYLOAD,2023-11-08 03:47:35,15.08785739,0.0001765,53.2158,266.1103,81.1207,278.9985,-0.0024869,-0.00039592,0.0,0 STARLINK-3663,1 51976U 22025W   23312.15804834 -.00039592  00000-0 -24869-2 0  9994,2 51976  53.2158 266.1103 0001765  81.1207 278.9985 15.08785739 93475,6918.046,95.441,541.132,538.69,0.0
51976.0,STARLINK-3663,PAYLOAD,2023-11-08 06:58:22,15.0877782,0.0001695,53.2158,265.5156,82.2444,277.874,-0.0022119,-0.00035259,0.0,0 STARLINK-3663,1 51976U 22025W   23312.29053468 -.00035259  00000-0 -22119-2 0  9990,2 51976  53.2158 265.5156 0001695  82.2444 277.8740 15.08777820 92381,6918.07,95.441,541.108,538.763,0.0
51976.0,STARLINK-3663,PAYLOAD,2023-11-09 03:38:25,15.08837568,0.000133,53.2168,261.6497,86.0225,274.0919,0.0023398,0.00037144,0.0,0 STARLINK-3663,1 51976U 22025W   23313.15168323  .00037144  00000-0  23398-2 0  9996,2 51976  53.2168 261.6497 0001330  86.0225 274.0919 15.08837568 93623,6917.888,95.438,540.673,538.833,0.0
51976.0,STARLINK-3663,PAYLOAD,2023-11-10 03:29:09,15.08908069,0.0001332,53.217,257.1873,83.772,276.3424,0.0011107,0.00017466,0.0,0 STARLINK-3663,1 51976U 22025W   23314.14524669  .00017466  00000-0  11107-2 0  9995,2 51976  53.2170 257.1873 0001332  83.7720 276.3424 15.08908069 93777,6917.672,95.433,540.459,538.616,0.0
51976.0,STARLINK-3663,PAYLOAD,2023-11-10 13:01:27,15.0888687,0.0001704,53.2172,255.407,99.2856,260.8329,0.00040576,6.184e-05,0.0,0 STARLINK-3663,1 51976U 22025W   23314.54268279  .00006184  00000-0  40576-3 0  9999,2 51976  53.2172 255.4070 0001704  99.2856 260.8329 15.08886870 92725,6917.737,95.435,540.781,538.423,0.0
51976.0,STARLINK-3663,PAYLOAD,2023-11-11 03:19:56,15.08804428,0.0001435,53.2167,252.7252,78.8979,281.2174,-0.0018553,-0.00029665,0.0,0 STARLINK-3663,1 51976U 22025W   23315.13885019 -.00029665  00000-0 -18553-2 0  9992,2 51976  53.2167 252.7252 0001435  78.8979 281.2174 15.08804428 93928,6917.989,95.44,540.847,538.861,0.0
51976.0,STARLINK-3663,PAYLOAD,2023-11-11 04:55:19,15.08806386,0.0001339,53.2159,252.4271,95.2815,264.833,-0.0016378,-0.00026235,0.0,0 STARLINK-3663,1 51976U 22025W   23315.20508858 -.00026235  00000-0 -16378-2 0  9996,2 51976  53.2159 252.4271 0001339  95.2815 264.8330 15.08806386 93939,6917.983,95.44,540.774,538.922,0.0
51976.0,STARLINK-3663,PAYLOAD,2023-11-11 12:52:16,15.08800809,0.0001403,53.2169,250.9426,96.5693,263.5459,-0.00047084,-7.765e-05,0.0,0 STARLINK-3663,1 51976U 22025W   23315.53630122 -.00007765  00000-0 -47084-3 0  9998,2 51976  53.2169 250.9426 0001403  96.5693 263.5459 15.08800809 92879,6918.0,95.44,540.836,538.895,0.0
51976.0,STARLINK-3663,PAYLOAD,2023-11-12 03:10:45,15.08828276,0.0001391,53.2166,248.2668,95.0741,265.041,0.0022191,0.00035194,0.0,0 STARLINK-3663,1 51976U 22025W   23316.13247501  .00035194  00000-0  22191-2 0  9996,2 51976  53.2166 248.2668 0001391  95.0741 265.0410 15.08828276 94074,6917.916,95.438,540.744,538.819,0.0
51976.0,STARLINK-3663,PAYLOAD,2023-11-12 04:46:09,15.0883293,0.000145,53.2168,247.9695,94.4636,265.6522,0.0022064,0.00034995,0.0,0 STARLINK-3663,1 51976U 22025W   23316.19871557  .00034995  00000-0  22064-2 0  9993,2 51976  53.2168 247.9695 0001450  94.4636 265.6522 15.08832930 92973,6917.902,95.438,540.77,538.764,0.0
51976.0,STARLINK-3663,PAYLOAD,2023-11-13 03:01:32,15.08889079,0.0001525,53.2167,243.8044,121.4903,238.6238,0.0027443,0.00043718,0.0,0 STARLINK-3663,1 51976U 22025W   23317.12606742  .00043718  00000-0  27443-2 0  9998,2 51976  53.2167 243.8044 0001525 121.4903 238.6238 15.08889079 94226,6917.73,95.434,540.65,538.54,0.0
51976.0,STARLINK-3663,PAYLOAD,2023-11-13 12:33:51,15.08863917,0.0001721,53.2169,242.0219,80.5124,279.6063,0.00095258,0.00014915,0.0,0 STARLINK-3663,1 51976U 22025W   23317.52350898  .00014915  00000-0  95258-3 0  9997,2 51976  53.2169 242.0219 0001721  80.5124 279.6063 15.08863917 93178,6917.807,95.436,540.863,538.482,0.0
51976.0,STARLINK-3663,PAYLOAD,2023-11-14 01:16:56,15.08837875,0.0001265,53.2172,239.6424,90.6899,269.4238,0.0012465,0.00019605,0.0,0 STARLINK-3663,1 51976U 22025W   23318.05343195  .00019605  00000-0  12465-2 0  9997,2 51976  53.2172 239.6424 0001265  90.6899 269.4238 15.08837875 94363,6917.887,95.438,540.627,538.877,0.0
51976.0,STARLINK-3663,PAYLOAD,2023-11-14 12:24:38,15.08848564,0.0001473,53.2176,237.5604,93.4741,266.6419,0.00097088,0.00015201,0.0,0 STARLINK-3663,1 51976U 22025W   23318.51711114  .00015201  00000-0  97088-3 0  9991,2 51976  53.2176 237.5604 0001473  93.4741 266.6419 15.08848564 93324,6917.854,95.437,540.738,538.7,0.0
51976.0,STARLINK-3663,PAYLOAD,2023-11-15 01:07:42,15.0886492,0.0001498,53.2176,235.1815,94.2544,265.862,0.00098892,0.00015496,0.0,0 STARLINK-3663,1 51976U 22025W   23319.04702503  .00015496  00000-0  98892-3 0  9992,2 51976  53.2176 235.1815 0001498  94.2544 265.8620 15.08864920 94510,6917.804,95.436,540.706,538.633,0.0
51976.0,STARLINK-3663,PAYLOAD,2023-11-15 04:18:28,15.08869299,0.0001511,53.2176,234.5861,96.5943,263.5221,0.00097636,0.00015297,0.0,0 STARLINK-3663,1 51976U 22025W   23319.17950213  .00015297  00000-0  97636-3 0  9993,2 51976  53.2176 234.5861 0001511  96.5943 263.5221 15.08869299 93423,6917.791,95.436,540.701,538.611,0.0
51976.0,STARLINK-3663,PAYLOAD,2023-11-15 18:36:57,15.08840262,0.0001524,53.2169,231.9094,115.1772,244.9378,0.0001911,2.755e-05,0.0,0 STARLINK-3663,1 51976U 22025W   23319.77566470  .00002755  00000-0  19110-3 0  9993,2 51976  53.2169 231.9094 0001524 115.1772 244.9378 15.08840262 94624,6917.88,95.438,540.799,538.69,0.0
